STARLINK-37280          
1 68511U 26068D   26118.86182244  .00321736  00000+0  15648-2 0  9993
2 68511  53.1549 257.8569 0000585  51.0545 309.0530 15.80993765  4603
STARLINK-37286          
1 68512U 26068E   26118.67141603  .00362925  00000+0  17615-2 0  9998
2 68512  53.1588 258.8017 0001177  57.1919 302.9217 15.80929360  4576
STARLINK-36250          
1 68513U 26068F   26119.25003472 -.02362492  00000+0 -29141-1 0  9994
2 68513  53.1596 256.1142 0000682  79.0642 231.9438 15.62955195  5899
STARLINK-37251          
1 68514U 26068G   26119.25003472 -.02295980  00000+0 -41133-1 0  9997
2 68514  53.1597 256.4173 0001054  69.8971  92.1646 15.53035990  5940
STARLINK-36293          
1 68515U 26068H   26119.25003472 -.02297984  00000+0 -28588-1 0  9993
2 68515  53.1597 256.1100 0000674  84.3498 228.5199 15.62642651  5891
STARLINK-36290          
1 68516U 26068J   26119.25003472 -.02201789  00000+0 -19919-1 0  9990
2 68516  53.1599 255.9373 0000760  68.8289 328.8635 15.70851128  5893
STARLINK-36298          
1 68517U 26068K   26119.25003472 -.02103265  00000+0 -43124-1 0  9996
2 68517  53.1603 256.5695 0001033  51.4298  34.8768 15.48964767  5896
STARLINK-36857          
1 68518U 26068L   26119.25003472 -.02181377  00000+0 -28701-1 0  9991
2 68518  53.1600 256.1188 0000913  86.3476 221.9371 15.61036036  5947
STARLINK-36326          
1 68519U 26068M   26119.25003472 -.02160785  00000+0 -28194-1 0  9998
2 68519  53.1599 256.1254 0000906  85.7304 219.4144 15.61219406  5948
STARLINK-37126          
1 68520U 26068N   26119.25003472 -.02220684  00000+0 -29192-1 0  9994
2 68520  53.1597 256.1054 0000758  91.1754 223.8791 15.61119706  5940
STARLINK-36347          
1 68521U 26068P   26119.25003472 -.01875921  00000+0 -20953-1 0  9990
2 68521  53.1598 256.0368 0000554  80.4503 268.1160 15.65212026  5941
STARLINK-36322          
1 68522U 26068Q   26119.25003472 -.02156582  00000+0 -21750-1 0  9993
2 68522  53.1596 255.9327 0000760  72.9572 326.5502 15.68183497  5899
STARLINK-37208          
1 68523U 26068R   26119.25003472 -.02299229  00000+0 -25843-1 0  9997
2 68523  53.1603 255.9756 0000531  84.2658 294.1431 15.65189771  5947
STARLINK-36302          
1 68524U 26068S   26119.25003472 -.02266492  00000+0 -35822-1 0  9992
2 68524  53.1597 256.2069 0001013  89.6658 175.2976 15.56370381  5948
STARLINK-36311          
1 68525U 26068T   26119.25003472 -.02247024  00000+0 -33877-1 0  9991
2 68525  53.1596 256.1472 0000887  85.0573 208.9717 15.57591953  5891
STARLINK-37178          
1 68526U 26068U   26119.25003472 -.02256776  00000+0 -38555-1 0  9994
2 68526  53.1595 256.2823 0001070  88.9560 138.5597 15.54263719  5948
