[{"OBJECT_NAME":"STARLINK-37280","OBJECT_ID":"2026-068D","EPOCH":"2026-04-28T20:41:01.458816","MEAN_MOTION":15.80993765,"ECCENTRICITY":5.85e-5,"INCLINATION":53.1549,"RA_OF_ASC_NODE":257.8569,"ARG_OF_PERICENTER":51.0545,"MEAN_ANOMALY":309.053,"EPHEMERIS_TYPE":0,"CLASSIFICATION_TYPE":"U","NORAD_CAT_ID":68511,"ELEMENT_SET_NO":999,"REV_AT_EPOCH":460,"BSTAR":0.0015648,"MEAN_MOTION_DOT":0.00321736,"MEAN_MOTION_DDOT":0},{"OBJECT_NAME":"STARLINK-37286","OBJECT_ID":"2026-068E","EPOCH":"2026-04-28T16:06:50.344992","MEAN_MOTION":15.8092936,"ECCENTRICITY":0.00011779,"INCLINATION":53.1588,"RA_OF_ASC_NODE":258.8017,"ARG_OF_PERICENTER":57.1919,"MEAN_ANOMALY":302.9217,"EPHEMERIS_TYPE":0,"CLASSIFICATION_TYPE":"U","NORAD_CAT_ID":68512,"ELEMENT_SET_NO":999,"REV_AT_EPOCH":457,"BSTAR":0.0017615134,"MEAN_MOTION_DOT":0.00362925,"MEAN_MOTION_DDOT":0},{"OBJECT_NAME":"STARLINK-36250","OBJECT_ID":"2026-068F","EPOCH":"2026-04-29T06:00:02.999808","MEAN_MOTION":15.62955195,"ECCENTRICITY":6.826e-5,"INCLINATION":53.1596,"RA_OF_ASC_NODE":256.1142,"ARG_OF_PERICENTER":79.0642,"MEAN_ANOMALY":231.9438,"EPHEMERIS_TYPE":0,"CLASSIFICATION_TYPE":"U","NORAD_CAT_ID":68513,"ELEMENT_SET_NO":999,"REV_AT_EPOCH":589,"BSTAR":-0.029140974,"MEAN_MOTION_DOT":-0.02362492,"MEAN_MOTION_DDOT":0},{"OBJECT_NAME":"STARLINK-37251","OBJECT_ID":"2026-068G","EPOCH":"2026-04-29T06:00:02.999808","MEAN_MOTION":15.5303599,"ECCENTRICITY":0.00010549,"INCLINATION":53.1597,"RA_OF_ASC_NODE":256.4173,"ARG_OF_PERICENTER":69.8971,"MEAN_ANOMALY":92.1646,"EPHEMERIS_TYPE":0,"CLASSIFICATION_TYPE":"U","NORAD_CAT_ID":68514,"ELEMENT_SET_NO":999,"REV_AT_EPOCH":594,"BSTAR":-0.041133452,"MEAN_MOTION_DOT":-0.0229598,"MEAN_MOTION_DDOT":0},{"OBJECT_NAME":"STARLINK-36293","OBJECT_ID":"2026-068H","EPOCH":"2026-04-29T06:00:02.999808","MEAN_MOTION":15.62642651,"ECCENTRICITY":6.744e-5,"INCLINATION":53.1597,"RA_OF_ASC_NODE":256.11,"ARG_OF_PERICENTER":84.3498,"MEAN_ANOMALY":228.5199,"EPHEMERIS_TYPE":0,"CLASSIFICATION_TYPE":"U","NORAD_CAT_ID":68515,"ELEMENT_SET_NO":999,"REV_AT_EPOCH":589,"BSTAR":-0.028588,"MEAN_MOTION_DOT":-0.02297984,"MEAN_MOTION_DDOT":0},{"OBJECT_NAME":"STARLINK-36290","OBJECT_ID":"2026-068J","EPOCH":"2026-04-29T06:00:02.999808","MEAN_MOTION":15.70851128,"ECCENTRICITY":7.603e-5,"INCLINATION":53.1599,"RA_OF_ASC_NODE":255.9373,"ARG_OF_PERICENTER":68.8289,"MEAN_ANOMALY":328.8635,"EPHEMERIS_TYPE":0,"CLASSIFICATION_TYPE":"U","NORAD_CAT_ID":68516,"ELEMENT_SET_NO":999,"REV_AT_EPOCH":589,"BSTAR":-0.019918939,"MEAN_MOTION_DOT":-0.02201789,"MEAN_MOTION_DDOT":0},{"OBJECT_NAME":"STARLINK-36298","OBJECT_ID":"2026-068K","EPOCH":"2026-04-29T06:00:02.999808","MEAN_MOTION":15.48964767,"ECCENTRICITY":0.00010331,"INCLINATION":53.1603,"RA_OF_ASC_NODE":256.5695,"ARG_OF_PERICENTER":51.4298,"MEAN_ANOMALY":34.8768,"EPHEMERIS_TYPE":0,"CLASSIFICATION_TYPE":"U","NORAD_CAT_ID":68517,"ELEMENT_SET_NO":999,"REV_AT_EPOCH":589,"BSTAR":-0.043123864,"MEAN_MOTION_DOT":-0.02103265,"MEAN_MOTION_DDOT":0},{"OBJECT_NAME":"STARLINK-36857","OBJECT_ID":"2026-068L","EPOCH":"2026-04-29T06:00:02.999808","MEAN_MOTION":15.61036036,"ECCENTRICITY":9.13e-5,"INCLINATION":53.16,"RA_OF_ASC_NODE":256.1188,"ARG_OF_PERICENTER":86.3476,"MEAN_ANOMALY":221.9371,"EPHEMERIS_TYPE":0,"CLASSIFICATION_TYPE":"U","NORAD_CAT_ID":68518,"ELEMENT_SET_NO":999,"REV_AT_EPOCH":594,"BSTAR":-0.028701416,"MEAN_MOTION_DOT":-0.02181377,"MEAN_MOTION_DDOT":0},{"OBJECT_NAME":"STARLINK-36326","OBJECT_ID":"2026-068M","EPOCH":"2026-04-29T06:00:02.999808","MEAN_MOTION":15.61219406,"ECCENTRICITY":9.06e-5,"INCLINATION":53.1599,"RA_OF_ASC_NODE":256.1254,"ARG_OF_PERICENTER":85.7304,"MEAN_ANOMALY":219.4144,"EPHEMERIS_TYPE":0,"CLASSIFICATION_TYPE":"U","NORAD_CAT_ID":68519,"ELEMENT_SET_NO":999,"REV_AT_EPOCH":594,"BSTAR":-0.028194258,"MEAN_MOTION_DOT":-0.02160785,"MEAN_MOTION_DDOT":0},{"OBJECT_NAME":"STARLINK-37126","OBJECT_ID":"2026-068N","EPOCH":"2026-04-29T06:00:02.999808","MEAN_MOTION":15.61119706,"ECCENTRICITY":7.582e-5,"INCLINATION":53.1597,"RA_OF_ASC_NODE":256.1054,"ARG_OF_PERICENTER":91.1754,"MEAN_ANOMALY":223.8791,"EPHEMERIS_TYPE":0,"CLASSIFICATION_TYPE":"U","NORAD_CAT_ID":68520,"ELEMENT_SET_NO":999,"REV_AT_EPOCH":594,"BSTAR":-0.029192381,"MEAN_MOTION_DOT":-0.02220684,"MEAN_MOTION_DDOT":0},{"OBJECT_NAME":"STARLINK-36347","OBJECT_ID":"2026-068P","EPOCH":"2026-04-29T06:00:02.999808","MEAN_MOTION":15.65212026,"ECCENTRICITY":5.544e-5,"INCLINATION":53.1598,"RA_OF_ASC_NODE":256.0368,"ARG_OF_PERICENTER":80.4503,"MEAN_ANOMALY":268.116,"EPHEMERIS_TYPE":0,"CLASSIFICATION_TYPE":"U","NORAD_CAT_ID":68521,"ELEMENT_SET_NO":999,"REV_AT_EPOCH":594,"BSTAR":-0.020953139,"MEAN_MOTION_DOT":-0.01875921,"MEAN_MOTION_DDOT":0},{"OBJECT_NAME":"STARLINK-36322","OBJECT_ID":"2026-068Q","EPOCH":"2026-04-29T06:00:02.999808","MEAN_MOTION":15.68183497,"ECCENTRICITY":7.604e-5,"INCLINATION":53.1596,"RA_OF_ASC_NODE":255.9327,"ARG_OF_PERICENTER":72.9572,"MEAN_ANOMALY":326.5502,"EPHEMERIS_TYPE":0,"CLASSIFICATION_TYPE":"U","NORAD_CAT_ID":68522,"ELEMENT_SET_NO":999,"REV_AT_EPOCH":589,"BSTAR":-0.021750192,"MEAN_MOTION_DOT":-0.02156582,"MEAN_MOTION_DDOT":0},{"OBJECT_NAME":"STARLINK-37208","OBJECT_ID":"2026-068R","EPOCH":"2026-04-29T06:00:02.999808","MEAN_MOTION":15.65189771,"ECCENTRICITY":5.311e-5,"INCLINATION":53.1603,"RA_OF_ASC_NODE":255.9756,"ARG_OF_PERICENTER":84.2658,"MEAN_ANOMALY":294.1431,"EPHEMERIS_TYPE":0,"CLASSIFICATION_TYPE":"U","NORAD_CAT_ID":68523,"ELEMENT_SET_NO":999,"REV_AT_EPOCH":594,"BSTAR":-0.025842896,"MEAN_MOTION_DOT":-0.02299229,"MEAN_MOTION_DDOT":0},{"OBJECT_NAME":"STARLINK-36302","OBJECT_ID":"2026-068S","EPOCH":"2026-04-29T06:00:02.999808","MEAN_MOTION":15.56370381,"ECCENTRICITY":0.00010134,"INCLINATION":53.1597,"RA_OF_ASC_NODE":256.2069,"ARG_OF_PERICENTER":89.6658,"MEAN_ANOMALY":175.2976,"EPHEMERIS_TYPE":0,"CLASSIFICATION_TYPE":"U","NORAD_CAT_ID":68524,"ELEMENT_SET_NO":999,"REV_AT_EPOCH":594,"BSTAR":-0.035821951,"MEAN_MOTION_DOT":-0.02266492,"MEAN_MOTION_DDOT":0},{"OBJECT_NAME":"STARLINK-36311","OBJECT_ID":"2026-068T","EPOCH":"2026-04-29T06:00:02.999808","MEAN_MOTION":15.57591953,"ECCENTRICITY":8.875e-5,"INCLINATION":53.1596,"RA_OF_ASC_NODE":256.1472,"ARG_OF_PERICENTER":85.0573,"MEAN_ANOMALY":208.9717,"EPHEMERIS_TYPE":0,"CLASSIFICATION_TYPE":"U","NORAD_CAT_ID":68525,"ELEMENT_SET_NO":999,"REV_AT_EPOCH":589,"BSTAR":-0.033877451,"MEAN_MOTION_DOT":-0.02247024,"MEAN_MOTION_DDOT":0},{"OBJECT_NAME":"STARLINK-37178","OBJECT_ID":"2026-068U","EPOCH":"2026-04-29T06:00:02.999808","MEAN_MOTION":15.54263719,"ECCENTRICITY":0.00010705,"INCLINATION":53.1595,"RA_OF_ASC_NODE":256.2823,"ARG_OF_PERICENTER":88.956,"MEAN_ANOMALY":138.5597,"EPHEMERIS_TYPE":0,"CLASSIFICATION_TYPE":"U","NORAD_CAT_ID":68526,"ELEMENT_SET_NO":999,"REV_AT_EPOCH":594,"BSTAR":-0.03855462,"MEAN_MOTION_DOT":-0.02256776,"MEAN_MOTION_DDOT":0}]
